[Satellite]
VERSION=1.1
NAME=GPS BIII-5  (PRN 11)
NICKNAME=GPS BIII-5  (PRN 11)
TLE1=1 48859U 21054A   22342.27578542 -.00000094  00000+0  00000+0 0  9991
TLE2=2 48859  55.2585  24.0591 0009135 213.4383 217.7890  2.00563721 10943
STATUS=0
